[{"OBJECT_NAME":"STARLINK-30131","OBJECT_ID":"2023-079L","EPOCH":"2026-03-09T22:00:01.999584","MEAN_MOTION":15.17301963,"ECCENTRICITY":0.00020252,"INCLINATION":43.0004,"RA_OF_ASC_NODE":79.5928,"ARG_OF_PERICENTER":274.1276,"MEAN_ANOMALY":22.6014,"EPHEMERIS_TYPE":0,"CLASSIFICATION_TYPE":"U","NORAD_CAT_ID":56833,"ELEMENT_SET_NO":999,"REV_AT_EPOCH":578,"BSTAR":0.061566052,"MEAN_MOTION_DOT":0.0135934,"MEAN_MOTION_DDOT":0},{"OBJECT_NAME":"SSC","OBJECT_ID":"1983-008H","EPOCH":"2026-03-09T22:25:23.890656","MEAN_MOTION":13.80329728,"ECCENTRICITY":0.07175979,"INCLINATION":63.3051,"RA_OF_ASC_NODE":276.7319,"ARG_OF_PERICENTER":134.8771,"MEAN_ANOMALY":231.29,"EPHEMERIS_TYPE":0,"CLASSIFICATION_TYPE":"U","NORAD_CAT_ID":13874,"ELEMENT_SET_NO":999,"REV_AT_EPOCH":33794,"BSTAR":0.00063857039,"MEAN_MOTION_DOT":5.119e-5,"MEAN_MOTION_DDOT":0}]
